{
  "type": "FeatureCollection",
  "features": [
    {
      "type": "Feature",
      "properties": {
        "norad_id": 43719,
        "name": "HYSIS",
        "group": "resource",
        "lat": 65.90306270292538,
        "lon": -118.40140580810316,
        "alt_km": 626.591466611093,
        "timestamp": "2025-12-06T05:40:08.894111+00:00",
        "meta_object_name": "HYSIS",
        "meta_object_id": "2018-096A",
        "meta_epoch": "2025-12-05T06:25:23.885184",
        "meta_mean_motion": 14.78610932,
        "meta_eccentricity": 0.00015669,
        "meta_inclination": 98.0108,
        "meta_ra_of_asc_node": 42.2818,
        "meta_arg_of_pericenter": 64.9989,
        "meta_mean_anomaly": 295.1384,
        "meta_ephemeris_type": 0,
        "meta_classification_type": "U",
        "meta_norad_cat_id": 43719,
        "meta_element_set_no": 999,
        "meta_rev_at_epoch": 37876,
        "meta_bstar": 3.4575066e-05,
        "meta_mean_motion_dot": 2.01e-06,
        "meta_mean_motion_ddot": 0,
        "tle_line1": "1 43719U 18096A   25339.26763756  .00000201  00000+0  34575-4 0  9992",
        "tle_line2": "2 43719  98.0108  42.2818 0001566  64.9989 295.1384 14.78610932378764"
      },
      "geometry": {
        "type": "Point",
        "coordinates": [
          -118.40140580810316,
          65.90306270292538
        ]
      }
    },
    {
      "type": "Feature",
      "properties": {
        "norad_id": 43783,
        "name": "KAZSTSAT",
        "group": "resource",
        "lat": -44.717931362105276,
        "lon": -171.74901522696277,
        "alt_km": 578.6275598505181,
        "timestamp": "2025-12-06T05:40:08.894121+00:00",
        "meta_object_name": "KAZSTSAT",
        "meta_object_id": "2018-099AB",
        "meta_epoch": "2025-12-05T01:26:18.320064",
        "meta_mean_motion": 14.99313546,
        "meta_eccentricity": 0.00063557,
        "meta_inclination": 97.4552,
        "meta_ra_of_asc_node": 14.5754,
        "meta_arg_of_pericenter": 359.8166,
        "meta_mean_anomaly": 0.3054,
        "meta_ephemeris_type": 0,
        "meta_classification_type": "U",
        "meta_norad_cat_id": 43783,
        "meta_element_set_no": 999,
        "meta_rev_at_epoch": 38221,
        "meta_bstar": 0.00031383319,
        "meta_mean_motion_dot": 3.779e-05,
        "meta_mean_motion_ddot": 0,
        "tle_line1": "1 43783U 18099AB  25339.05993426  .00003779  00000+0  31383-3 0  9998",
        "tle_line2": "2 43783  97.4552  14.5754 0006355 359.8166   0.3054 14.99313546382215"
      },
      "geometry": {
        "type": "Point",
        "coordinates": [
          -171.74901522696277,
          -44.717931362105276
        ]
      }
    },
    {
      "type": "Feature",
      "properties": {
        "norad_id": 43831,
        "name": "SAUDISAT 5A",
        "group": "resource",
        "lat": 23.650160988953033,
        "lon": 37.31914362149756,
        "alt_km": 486.2012377700257,
        "timestamp": "2025-12-06T05:40:08.894132+00:00",
        "meta_object_name": "SAUDISAT 5A",
        "meta_object_id": "2018-102A",
        "meta_epoch": "2025-12-05T07:31:32.047968",
        "meta_mean_motion": 15.25517371,
        "meta_eccentricity": 0.0011822,
        "meta_inclination": 97.3367,
        "meta_ra_of_asc_node": 39.6489,
        "meta_arg_of_pericenter": 98.9801,
        "meta_mean_anomaly": 261.2776,
        "meta_ephemeris_type": 0,
        "meta_classification_type": "U",
        "meta_norad_cat_id": 43831,
        "meta_element_set_no": 999,
        "meta_rev_at_epoch": 38609,
        "meta_bstar": 0.00046054917,
        "meta_mean_motion_dot": 0.0001163,
        "meta_mean_motion_ddot": 0,
        "tle_line1": "1 43831U 18102A   25339.31356537  .00011630  00000+0  46055-3 0  9999",
        "tle_line2": "2 43831  97.3367  39.6489 0011822  98.9801 261.2776 15.25517371386098"
      },
      "geometry": {
        "type": "Point",
        "coordinates": [
          37.31914362149756,
          23.650160988953033
        ]
      }
    },
    {
      "type": "Feature",
      "properties": {
        "norad_id": 43833,
        "name": "SAUDISAT 5B",
        "group": "resource",
        "lat": 66.80629063844722,
        "lon": 25.75693661533687,
        "alt_km": 474.1855937730443,
        "timestamp": "2025-12-06T05:40:08.894142+00:00",
        "meta_object_name": "SAUDISAT 5B",
        "meta_object_id": "2018-102C",
        "meta_epoch": "2025-12-05T07:20:18.844224",
        "meta_mean_motion": 15.25873602,
        "meta_eccentricity": 0.00125351,
        "meta_inclination": 97.3462,
        "meta_ra_of_asc_node": 42.3665,
        "meta_arg_of_pericenter": 101.5595,
        "meta_mean_anomaly": 258.7052,
        "meta_ephemeris_type": 0,
        "meta_classification_type": "U",
        "meta_norad_cat_id": 43833,
        "meta_element_set_no": 999,
        "meta_rev_at_epoch": 38620,
        "meta_bstar": 0.00042005901,
        "meta_mean_motion_dot": 0.00010717,
        "meta_mean_motion_ddot": 0,
        "tle_line1": "1 43833U 18102C   25339.30577366  .00010717  00000+0  42006-3 0  9992",
        "tle_line2": "2 43833  97.3462  42.3665 0012535 101.5595 258.7052 15.25873602386209"
      },
      "geometry": {
        "type": "Point",
        "coordinates": [
          25.75693661533687,
          66.80629063844722
        ]
      }
    },
    {
      "type": "Feature",
      "properties": {
        "norad_id": 44622,
        "name": "GAOFEN-10R",
        "group": "resource",
        "lat": -58.92272510291463,
        "lon": -58.742011942556395,
        "alt_km": 630.5518748738568,
        "timestamp": "2025-12-06T05:40:08.894154+00:00",
        "meta_object_name": "GAOFEN-10R",
        "meta_object_id": "2019-066A",
        "meta_epoch": "2025-12-05T07:15:52.016832",
        "meta_mean_motion": 14.82751398,
        "meta_eccentricity": 0.00082175,
        "meta_inclination": 98.0269,
        "meta_ra_of_asc_node": 286.7802,
        "meta_arg_of_pericenter": 62.298,
        "meta_mean_anomaly": 297.9066,
        "meta_ephemeris_type": 0,
        "meta_classification_type": "U",
        "meta_norad_cat_id": 44622,
        "meta_element_set_no": 999,
        "meta_rev_at_epoch": 33364,
        "meta_bstar": 0.00042449056,
        "meta_mean_motion_dot": 3.377e-05,
        "meta_mean_motion_ddot": 0,
        "tle_line1": "1 44622U 19066A   25339.30268538  .00003377  00000+0  42449-3 0  9992",
        "tle_line2": "2 44622  98.0269 286.7802 0008217  62.2980 297.9066 14.82751398333648"
      },
      "geometry": {
        "type": "Point",
        "coordinates": [
          -58.742011942556395,
          -58.92272510291463
        ]
      }
    },
    {
      "type": "Feature",
      "properties": {
        "norad_id": 44804,
        "name": "CARTOSAT-3",
        "group": "resource",
        "lat": -29.75876837147201,
        "lon": 44.198109582022816,
        "alt_km": 521.0324120430569,
        "timestamp": "2025-12-06T05:40:08.894164+00:00",
        "meta_object_name": "CARTOSAT-3",
        "meta_object_id": "2019-081A",
        "meta_epoch": "2025-12-05T15:34:29.860608",
        "meta_mean_motion": 15.19277686,
        "meta_eccentricity": 0.0013903,
        "meta_inclination": 97.4595,
        "meta_ra_of_asc_node": 39.3219,
        "meta_arg_of_pericenter": 109.3687,
        "meta_mean_anomaly": 250.9051,
        "meta_ephemeris_type": 0,
        "meta_classification_type": "U",
        "meta_norad_cat_id": 44804,
        "meta_element_set_no": 999,
        "meta_rev_at_epoch": 33408,
        "meta_bstar": 0.00041587,
        "meta_mean_motion_dot": 8.729e-05,
        "meta_mean_motion_ddot": 0,
        "tle_line1": "1 44804U 19081A   25339.64895672  .00008729  00000+0  41587-3 0  9991",
        "tle_line2": "2 44804  97.4595  39.3219 0013903 109.3687 250.9051 15.19277686334080"
      },
      "geometry": {
        "type": "Point",
        "coordinates": [
          44.198109582022816,
          -29.75876837147201
        ]
      }
    },
    {
      "type": "Feature",
      "properties": {
        "norad_id": 44819,
        "name": "GAOFEN-12 01",
        "group": "resource",
        "lat": -74.93115160556235,
        "lon": 136.02617380419298,
        "alt_km": 633.8492728150886,
        "timestamp": "2025-12-06T05:40:08.894174+00:00",
        "meta_object_name": "GAOFEN-12 01",
        "meta_object_id": "2019-082A",
        "meta_epoch": "2025-12-05T07:25:36.281280",
        "meta_mean_motion": 14.80643838,
        "meta_eccentricity": 0.00012042,
        "meta_inclination": 97.8128,
        "meta_ra_of_asc_node": 345.7855,
        "meta_arg_of_pericenter": 285.2576,
        "meta_mean_anomaly": 74.8504,
        "meta_ephemeris_type": 0,
        "meta_classification_type": "U",
        "meta_norad_cat_id": 44819,
        "meta_element_set_no": 999,
        "meta_rev_at_epoch": 32540,
        "meta_bstar": 0.00013242966,
        "meta_mean_motion_dot": 9.66e-06,
        "meta_mean_motion_ddot": 0,
        "tle_line1": "1 44819U 19082A   25339.30944770  .00000966  00000+0  13243-3 0  9998",
        "tle_line2": "2 44819  97.8128 345.7855 0001204 285.2576  74.8504 14.80643838325409"
      },
      "geometry": {
        "type": "Point",
        "coordinates": [
          136.02617380419298,
          -74.93115160556235
        ]
      }
    }
  ]
}